{"type": "FeatureCollection", "features": [ {"type": "Feature", "properties": {"norad_id": 42741, "name": "EUTELSAT 172B", "group": "eutelsat", "lat": -0.02058627499656949, "lon": -35.55367527014264, "alt_km": 35786.85081177432, "timestamp": "2025-12-26T03:50:11.759207+00:00", "meta": {"OBJECT_NAME": "EUTELSAT 172B", "OBJECT_ID": "2017-029B", "EPOCH": "2025-12-25T07:02:05.510112", "MEAN_MOTION": 1.00270279, "ECCENTRICITY": 9.5e-06, "INCLINATION": 0.033, "RA_OF_ASC_NODE": 135.5035, "ARG_OF_PERICENTER": 351.0037, "MEAN_ANOMALY": 245.0703, "EPHEMERIS_TYPE": 0, "CLASSIFICATION_TYPE": "U", "NORAD_CAT_ID": 42741, "ELEMENT_SET_NO": 999, "REV_AT_EPOCH": 3198, "BSTAR": 0, "MEAN_MOTION_DOT": 1.5e-07, "MEAN_MOTION_DDOT": 0}, "tle": {"line1": "1 42741U 17029B   25359.29311933  .00000015  00000+0  00000+0 0  9996", "line2": "2 42741   0.0330 135.5035 0000095 351.0037 245.0703  1.00270279 31981"}}, "geometry": {"type": "Point", "coordinates": [-35.55367527014264, -0.02058627499656949]}}, {"type": "Feature", "properties": {"norad_id": 44334, "name": "EUTELSAT 7C", "group": "eutelsat", "lat": -0.01017481622971855, "lon": 159.3859718149475, "alt_km": 35788.225759944966, "timestamp": "2025-12-26T03:50:11.759219+00:00", "meta": {"OBJECT_NAME": "EUTELSAT 7C", "OBJECT_ID": "2019-034B", "EPOCH": "2025-12-24T14:50:38.546016", "MEAN_MOTION": 1.00270796, "ECCENTRICITY": 0.00031593, "INCLINATION": 0.0726, "RA_OF_ASC_NODE": 177.7928, "ARG_OF_PERICENTER": 79.9691, "MEAN_ANOMALY": 65.2631, "EPHEMERIS_TYPE": 0, "CLASSIFICATION_TYPE": "U", "NORAD_CAT_ID": 44334, "ELEMENT_SET_NO": 999, "REV_AT_EPOCH": 508, "BSTAR": 0, "MEAN_MOTION_DOT": 6.9e-07, "MEAN_MOTION_DDOT": 0}, "tle": {"line1": "1 44334U 19034B   25358.61850169  .00000069  00000+0  00000+0 0  9997", "line2": "2 44334   0.0726 177.7928 0003159  79.9691  65.2631  1.00270796  5083"}}, "geometry": {"type": "Point", "coordinates": [159.3859718149475, -0.01017481622971855]}}, {"type": "Feature", "properties": {"norad_id": 44624, "name": "EUTELSAT 5 WEST B", "group": "eutelsat", "lat": 0.03139297324813455, "lon": 147.42187354085976, "alt_km": 35794.123932424794, "timestamp": "2025-12-26T03:50:11.759231+00:00", "meta": {"OBJECT_NAME": "EUTELSAT 5 WEST B", "OBJECT_ID": "2019-067A", "EPOCH": "2025-12-25T18:10:42.798720", "MEAN_MOTION": 1.00271274, "ECCENTRICITY": 0.0003184, "INCLINATION": 0.0627, "RA_OF_ASC_NODE": 345.6151, "ARG_OF_PERICENTER": 287.7229, "MEAN_ANOMALY": 88.854, "EPHEMERIS_TYPE": 0, "CLASSIFICATION_TYPE": "U", "NORAD_CAT_ID": 44624, "ELEMENT_SET_NO": 999, "REV_AT_EPOCH": 2269, "BSTAR": 0, "MEAN_MOTION_DOT": -2.1e-07, "MEAN_MOTION_DDOT": 0}, "tle": {"line1": "1 44624U 19067A   25359.75743980 -.00000021  00000+0  00000+0 0  9992", "line2": "2 44624   0.0627 345.6151 0003184 287.7229  88.8540  1.00271274 22691"}}, "geometry": {"type": "Point", "coordinates": [147.42187354085976, 0.03139297324813455]}}, {"type": "Feature", "properties": {"norad_id": 45027, "name": "EUTELSAT KONNECT", "group": "eutelsat", "lat": 0.0733434916130751, "lon": 159.62105836136482, "alt_km": 35792.25037887214, "timestamp": "2025-12-26T03:50:11.759243+00:00", "meta": {"OBJECT_NAME": "EUTELSAT KONNECT", "OBJECT_ID": "2020-005B", "EPOCH": "2025-12-24T23:24:19.351008", "MEAN_MOTION": 1.00267204, "ECCENTRICITY": 0.0001571, "INCLINATION": 0.069, "RA_OF_ASC_NODE": 93.7711, "ARG_OF_PERICENTER": 204.5991, "MEAN_ANOMALY": 153.6522, "EPHEMERIS_TYPE": 0, "CLASSIFICATION_TYPE": "U", "NORAD_CAT_ID": 45027, "ELEMENT_SET_NO": 999, "REV_AT_EPOCH": 2259, "BSTAR": 0, "MEAN_MOTION_DOT": 7e-07, "MEAN_MOTION_DDOT": 0}, "tle": {"line1": "1 45027U 20005B   25358.97522397  .00000070  00000+0  00000+0 0  9997", "line2": "2 45027   0.0690  93.7711 0001571 204.5991 153.6522  1.00267204 22591"}}, "geometry": {"type": "Point", "coordinates": [159.62105836136482, 0.0733434916130751]}}, {"type": "Feature", "properties": {"norad_id": 49056, "name": "EUTELSAT QUANTUM", "group": "eutelsat", "lat": -0.0033411281653368623, "lon": -159.88913257343597, "alt_km": 35784.21610718941, "timestamp": "2025-12-26T03:50:11.759254+00:00", "meta": {"OBJECT_NAME": "EUTELSAT QUANTUM", "OBJECT_ID": "2021-069B", "EPOCH": "2025-12-25T01:54:38.767104", "MEAN_MOTION": 1.00270981, "ECCENTRICITY": 0.0003521, "INCLINATION": 0.0117, "RA_OF_ASC_NODE": 16.1533, "ARG_OF_PERICENTER": 266.4421, "MEAN_ANOMALY": 247.6123, "EPHEMERIS_TYPE": 0, "CLASSIFICATION_TYPE": "U", "NORAD_CAT_ID": 49056, "ELEMENT_SET_NO": 999, "REV_AT_EPOCH": 1618, "BSTAR": 0, "MEAN_MOTION_DOT": 1.47e-06, "MEAN_MOTION_DDOT": 0}, "tle": {"line1": "1 49056U 21069B   25359.07961536  .00000147  00000+0  00000+0 0  9993", "line2": "2 49056   0.0117  16.1533 0003521 266.4421 247.6123  1.00270981 16189"}}, "geometry": {"type": "Point", "coordinates": [-159.88913257343597, -0.0033411281653368623]}}, {"type": "Feature", "properties": {"norad_id": 53765, "name": "EUTELSAT KONNECT VHTS", "group": "eutelsat", "lat": 0.06143550297706587, "lon": 155.1228510004884, "alt_km": 35788.04050041227, "timestamp": "2025-12-26T03:50:11.759266+00:00", "meta": {"OBJECT_NAME": "EUTELSAT KONNECT VHTS", "OBJECT_ID": "2022-110A", "EPOCH": "2025-12-25T13:04:49.589760", "MEAN_MOTION": 1.00267512, "ECCENTRICITY": 0.0002526, "INCLINATION": 0.0614, "RA_OF_ASC_NODE": 98.0209, "ARG_OF_PERICENTER": 151.222, "MEAN_ANOMALY": 43.9766, "EPHEMERIS_TYPE": 0, "CLASSIFICATION_TYPE": "U", "NORAD_CAT_ID": 53765, "ELEMENT_SET_NO": 999, "REV_AT_EPOCH": 508, "BSTAR": 0, "MEAN_MOTION_DOT": 3.8e-07, "MEAN_MOTION_DDOT": 0}, "tle": {"line1": "1 53765U 22110A   25359.54501840  .00000038  00000+0  00000+0 0  9992", "line2": "2 53765   0.0614  98.0209 0002526 151.2220  43.9766  1.00267512  5087"}}, "geometry": {"type": "Point", "coordinates": [155.1228510004884, 0.06143550297706587]}}, {"type": "Feature", "properties": {"norad_id": 54048, "name": "EUTELSAT HOTBIRD 13F", "group": "eutelsat", "lat": -0.03325837603545891, "lon": 165.44891115149798, "alt_km": 35795.19075937991, "timestamp": "2025-12-26T03:50:11.759278+00:00", "meta": {"OBJECT_NAME": "EUTELSAT HOTBIRD 13F", "OBJECT_ID": "2022-134A", "EPOCH": "2025-12-24T23:25:56.697024", "MEAN_MOTION": 1.00270775, "ECCENTRICITY": 0.0002211, "INCLINATION": 0.0545, "RA_OF_ASC_NODE": 289.4002, "ARG_OF_PERICENTER": 71.817, "MEAN_ANOMALY": 97.0057, "EPHEMERIS_TYPE": 0, "CLASSIFICATION_TYPE": "U", "NORAD_CAT_ID": 54048, "ELEMENT_SET_NO": 999, "REV_AT_EPOCH": 1163, "BSTAR": 0, "MEAN_MOTION_DOT": 1.08e-06, "MEAN_MOTION_DDOT": 0}, "tle": {"line1": "1 54048U 22134A   25358.97635066  .00000108  00000+0  00000+0 0  9995", "line2": "2 54048   0.0545 289.4002 0002211  71.8170  97.0057  1.00270775 11630"}}, "geometry": {"type": "Point", "coordinates": [165.44891115149798, -0.03325837603545891]}}, {"type": "Feature", "properties": {"norad_id": 54225, "name": "EUTELSAT HOTBIRD 13G", "group": "eutelsat", "lat": -0.033474535446913305, "lon": 165.4235232216494, "alt_km": 35779.612478438205, "timestamp": "2025-12-26T03:50:11.759290+00:00", "meta": {"OBJECT_NAME": "EUTELSAT HOTBIRD 13G", "OBJECT_ID": "2022-146A", "EPOCH": "2025-12-24T00:28:38.654112", "MEAN_MOTION": 1.00268836, "ECCENTRICITY": 0.00017131, "INCLINATION": 0.0535, "RA_OF_ASC_NODE": 227.8066, "ARG_OF_PERICENTER": 307.349, "MEAN_ANOMALY": 297.8001, "EPHEMERIS_TYPE": 0, "CLASSIFICATION_TYPE": "U", "NORAD_CAT_ID": 54225, "ELEMENT_SET_NO": 999, "REV_AT_EPOCH": 571, "BSTAR": 0, "MEAN_MOTION_DOT": 1.08e-06, "MEAN_MOTION_DDOT": 0}, "tle": {"line1": "1 54225U 22146A   25358.01989183  .00000108  00000+0  00000+0 0  9992", "line2": "2 54225   0.0535 227.8066 0001713 307.3490 297.8001  1.00268836  5716"}}, "geometry": {"type": "Point", "coordinates": [165.4235232216494, -0.033474535446913305]}}, {"type": "Feature", "properties": {"norad_id": 54259, "name": "EUTELSAT 10B", "group": "eutelsat", "lat": 0.06418986645946506, "lon": 162.4725808388285, "alt_km": 35783.6283843802, "timestamp": "2025-12-26T03:50:11.759302+00:00", "meta": {"OBJECT_NAME": "EUTELSAT 10B", "OBJECT_ID": "2022-157A", "EPOCH": "2025-12-25T01:07:54.431328", "MEAN_MOTION": 1.00270064, "ECCENTRICITY": 6.834e-05, "INCLINATION": 0.06, "RA_OF_ASC_NODE": 95.6031, "ARG_OF_PERICENTER": 57.2113, "MEAN_ANOMALY": 328.0007, "EPHEMERIS_TYPE": 0, "CLASSIFICATION_TYPE": "U", "NORAD_CAT_ID": 54259, "ELEMENT_SET_NO": 999, "REV_AT_EPOCH": 1128, "BSTAR": 0, "MEAN_MOTION_DOT": 8.9e-07, "MEAN_MOTION_DDOT": 0}, "tle": {"line1": "1 54259U 22157A   25359.04715777  .00000089  00000+0  00000+0 0  9999", "line2": "2 54259   0.0600  95.6031 0000683  57.2113 328.0007  1.00270064 11285"}}, "geometry": {"type": "Point", "coordinates": [162.4725808388285, 0.06418986645946506]}}, {"type": "Feature", "properties": {"norad_id": 59346, "name": "EUTELSAT 36D", "group": "eutelsat", "lat": 0.012861204694116127, "lon": -171.65213205675832, "alt_km": 35787.31292912275, "timestamp": "2025-12-26T03:50:11.759313+00:00", "meta": {"OBJECT_NAME": "EUTELSAT 36D", "OBJECT_ID": "2024-059A", "EPOCH": "2025-12-24T21:49:50.901024", "MEAN_MOTION": 1.00275345, "ECCENTRICITY": 6.34e-05, "INCLINATION": 0.0185, "RA_OF_ASC_NODE": 36.8149, "ARG_OF_PERICENTER": 305.8613, "MEAN_ANOMALY": 114.3448, "EPHEMERIS_TYPE": 0, "CLASSIFICATION_TYPE": "U", "NORAD_CAT_ID": 59346, "ELEMENT_SET_NO": 999, "REV_AT_EPOCH": 640, "BSTAR": 0, "MEAN_MOTION_DOT": 1.77e-06, "MEAN_MOTION_DDOT": 0}, "tle": {"line1": "1 59346U 24059A   25358.90961691  .00000177  00000+0  00000+0 0  9994", "line2": "2 59346   0.0185  36.8149 0000634 305.8613 114.3448  1.00275345  6405"}}, "geometry": {"type": "Point", "coordinates": [-171.65213205675832, 0.012861204694116127]}}]}